satname,norad_id,inclination_deg,eccentricity,mean_motion_rev_per_day,perigee_km,apogee_km,l1,l2
STARLINK-1133,45064,53.054,0.0001411,15.06407063,546.2127473179808,548.1670745722495,1 45064U 20006W   25279.17563189  .00002485  00000+0  18561-3 0  9994,2 45064  53.0540 240.2559 0001411  87.2785 272.8366 15.06407063313451
STARLINK-1167,45071,53.0542,0.0001482,15.06403456,546.174630729749,548.2273009028168,1 45071U 20006AD  25279.20143181  .00002695  00000+0  19972-3 0  9992,2 45071  53.0542 240.1455 0001482  96.5868 263.5290 15.06403456313453
STARLINK-1168,45072,53.0529,0.000133,15.06420327,546.2281962389488,548.0703223839255,1 45072U 20006AE  25279.20512231  .00006208  00000+0  43503-3 0  9990,2 45072  53.0529 240.1272 0001330  98.3593 261.7547 15.06420327313454
STARLINK-1172,45074,53.053,0.0001409,15.06391351,546.2622806576228,548.2138513512236,1 45074U 20006AG  25279.21617010 -.00003771  00000+0 -23448-3 0  9994,2 45074  53.0530 240.0784 0001409  96.9405 263.1744 15.06391351313457
STARLINK-1153,45080,53.0541,0.0001345,15.06405689,546.2626649916037,548.1255790634286,1 45080U 20006AN  25279.12770920 -.00000360  00000+0 -52871-5 0  9996,2 45080  53.0541 240.4753 0001345  91.9923 268.1220 15.06405689313448
STARLINK-1151,45081,53.054,0.0001419,15.06409889,546.198547083718,548.1639524029952,1 45081U 20006AP  25279.17932803  .00002187  00000+0  16561-3 0  9993,2 45081  53.0540 240.3179 0001419  92.6038 267.5113 15.06409889313457
STARLINK-1190,45083,53.0469,0.0007495,15.78442998,329.8201590696981,339.8829288971292,1 45083U 20006AR  25279.09403625  .00157113  00000+0  87537-3 0  9992,2 45083  53.0469 205.5163 0007495  92.9224 267.2654 15.78442998313932
STARLINK-1173,45084,53.0413,0.0003993,15.92342463,293.06475652326935,298.3945064151603,1 45084U 20006AS  25279.00002315  .00278569  40399-4  81421-3 0  9990,2 45084  53.0413 168.6679 0003993  72.5760 225.8162 15.92342463  6004
STARLINK-1185,45087,53.0537,0.0001418,15.06408157,546.2045471403835,548.1685689014375,1 45087U 20006AV  25279.15536297  .00004020  00000+0  28853-3 0  9999,2 45087  53.0537 220.3484 0001418  92.8475 267.2677 15.06408157313732
STARLINK-1183,45088,53.0537,0.0001261,15.06402199,546.3315327248984,548.0781039314797,1 45088U 20006AW  25279.11112709  .00005446  00000+0  38420-3 0  9998,2 45088  53.0537 220.5478 0001261  92.8127 267.3006 15.06402199313724
STARLINK-1176,45090,53.0468,0.0001833,15.89368919,302.8262666863875,305.2759568481606,1 45090U 20006AY  25279.38503688  .00271405  00000+0  88800-3 0  9997,2 45090  53.0468 164.7263 0001833  62.2974 297.8237 15.89368919314533
STARLINK-1142,45093,53.0375,0.0005156,15.53943634,401.727592889104,408.72259588083307,1 45093U 20006BB  25278.40278797  .00106190  00000+0  16021-2 0  9995,2 45093  53.0375 166.4881 0005156 132.7239 227.4206 15.53943634314424
STARLINK-1147,45095,53.0354,0.0001631,16.06631724,255.0174538858082,257.18154183140905,1 45095U 20006BD  25279.86548850  .00721471  27531-3  92974-3 0  9997,2 45095  53.0354 157.5257 0001631 170.3091 189.7972 16.06631724314679
STARLINK-1152,45096,53.0473,0.000866,15.22418941,492.59159700289547,504.50201335346446,1 45096U 20006BE  25279.52374000  .00044452  00000+0  18996-2 0  9991,2 45096  53.0473 203.8222 0008660  93.3854 266.8132 15.22418941313999
STARLINK-1184,45098,53.0544,0.00014,15.06404244,546.229003742962,548.1680976971647,1 45098U 20006BG  25279.52395411  .00000253  00000+0  35886-4 0  9992,2 45098  53.0544 218.6944 0001400 102.1575 257.9571 15.06404244313787
STARLINK-1193,45100,53.0544,0.0001558,15.0641165,546.09688885386,548.2548163387291,1 45100U 20006BJ  25279.12218650  .00010408  00000+0  71637-3 0  9997,2 45100  53.0544 220.4972 0001558  92.5275 267.5892 15.06411650313722
STARLINK-1143,45179,53.0557,0.0005127,15.36578513,452.7319087379801,459.73987470115026,1 45179U 20012B   25279.57422152  .00057645  00000+0  15891-2 0  9996,2 45179  53.0557 347.8231 0005127 300.2745  59.7750 15.36578513312044
STARLINK-1202,45183,53.0571,0.0001386,15.06401029,546.2485513302536,548.1682570762987,1 45183U 20012F   25279.51657897  .00000510  00000+0  53131-4 0  9991,2 45183  53.0571  18.7303 0001386  93.6349 266.4799 15.06401029311600
STARLINK-1216,45185,53.0553,0.0001341,15.06382824,546.3355041036975,548.1928967056456,1 45185U 20012H   25279.57556679 -.00000147  00000+0  90581-5 0  9993,2 45185  53.0553  18.4642 0001341  89.8653 270.2489 15.06382824311555
STARLINK-1225,45187,53.0557,0.0001598,15.06408721,546.0781630299325,548.2914958866286,1 45187U 20012K   25278.66512982  .00004213  00000+0  30147-3 0  9990,2 45187  53.0557  22.5516 0001598  95.8063 264.3108 15.06408721311460
STARLINK-1230,45189,53.0528,0.000119,15.0637823,546.4541562379709,548.1024050747674,1 45189U 20012M   25279.46499534 -.00000877  00000+0 -40012-4 0  9995,2 45189  53.0528  18.9598 0001190  85.8095 274.3030 15.06378230308812
STARLINK-1234,45190,53.0552,0.0001341,15.06390256,546.3127288094638,548.1701153022595,1 45190U 20012N   25279.48340878 -.00004517  00000+0 -28464-3 0  9996,2 45190  53.0552 338.8794 0001341  81.8004 278.3137 15.06390256312052
STARLINK-1269,45197,53.0558,0.0002392,15.064016,545.5501119709816,548.8631963751386,1 45197U 20012V   25279.47604247 -.00000697  00000+0 -27899-4 0  9992,2 45197  53.0558  18.9140 0002392  89.7019 270.4244 15.06401600311569
STARLINK-1154,45198,53.0564,0.0001422,15.06394017,546.245107859786,548.2146822047325,1 45198U 20012W   25279.46684287  .00001238  00000+0  10200-3 0  9991,2 45198  53.0564 358.9554 0001422  95.5213 264.5939 15.06394017311813
STARLINK-1199,45201,53.0528,0.0001941,15.06385816,545.9108116034522,548.5992487895746,1 45201U 20012Z   25279.47788781 -.00000163  00000+0  79691-5 0  9999,2 45201  53.0528 358.9050 0001941  96.1931 263.9279 15.06385816311872
STARLINK-1209,45206,53.0545,0.0001351,15.06396989,546.285170398065,548.156402071907,1 45206U 20012AE  25279.48710256  .00000316  00000+0  40106-4 0  9994,2 45206  53.0545 338.8652 0001351  82.8525 277.2618 15.06396989311202
STARLINK-1210,45207,53.0267,0.0012985,15.50345053,406.8960108592628,424.5396518562993,1 45207U 20012AF  25279.34583185  .00093255  00000+0  16000-2 0  9997,2 45207  53.0267 307.7771 0012985 322.3582  37.6516 15.50345053312583
STARLINK-1231,45212,53.0542,0.0002959,15.1031648,533.1883907669398,537.2797237586274,1 45212U 20012AL  25279.50752620  .00017436  00000+0  10668-2 0  9994,2 45212  53.0542 357.9578 0002959 293.6050  66.4630 15.10316480311840
STARLINK-1271,45217,53.0562,0.0001416,15.06394597,546.2474857039724,548.2087491052216,1 45217U 20012AR  25279.52948504  .00001075  00000+0  91064-4 0  9992,2 45217  53.0562 358.6700 0001416  70.3874 289.7268 15.06394597311884
STARLINK-1191,45222,53.0559,0.0001436,15.06397558,546.2245611989983,548.2135234543539,1 45222U 20012AW  25279.47235727 -.00001055  00000+0 -51968-4 0  9997,2 45222  53.0559 338.9292 0001436  93.8567 266.2586 15.06397558312158
STARLINK-1212,45223,53.0548,0.0001448,15.06405531,546.1918182551672,548.1973942883433,1 45223U 20012AX  25279.49088030  .00006244  00000+0  43766-3 0  9992,2 45223  53.0548 339.4997 0001448  86.8698 273.2457 15.06405531312151
STARLINK-1215,45225,53.056,0.0001371,15.06404039,546.2497154225157,548.1486426028005,1 45225U 20012AZ  25279.57924163 -.00000930  00000+0 -43514-4 0  9999,2 45225  53.0560 338.4463 0001371  98.8515 261.2630 15.06404039312129
STARLINK-1217,45226,53.0387,0.000174,16.00783775,271.0898764670819,273.40421011414674,1 45226U 20012BA  25279.57281341  .00463072  10466-3  84846-3 0  9995,2 45226  53.0387 279.7375 0001740  55.0437 305.0756 16.00783775312908
STARLINK-1221,45227,53.0678,0.0002004,15.3573907,457.3560268070978,460.09624155127676,1 45227U 20012BB  25279.27266992  .00016250  00000+0  47063-3 0  9999,2 45227  53.0678 277.9154 0002004 240.6051 119.4751 15.35739070312936
STARLINK-1222,45228,53.0546,0.0001396,15.06390422,546.2741305276377,548.2076960410268,1 45228U 20012BC  25279.47973004 -.00000296  00000+0 -10101-5 0  9991,2 45228  53.0546 338.8944 0001396  85.1471 274.9677 15.06390422312044
STARLINK-1226,45229,53.0535,0.0001532,15.06403883,546.1386955522239,548.2606187039682,1 45229U 20012BD  25279.44287497 -.00000306  00000+0 -16661-5 0  9992,2 45229  53.0535 339.0578 0001532  95.1815 264.9349 15.06403883312045
STARLINK-1227,45230,53.0547,0.0001441,15.0639016,546.2437692122066,548.2396633582403,1 45230U 20012BE  25279.57187940  .00001733  00000+0  13527-3 0  9999,2 45230  53.0547 338.4806 0001441  87.7451 272.3703 15.06390160312184
STARLINK-1246,45235,53.0563,0.0001334,15.06391972,546.3123179313998,548.1600074912103,1 45235U 20012BK  25279.52027379 -.00000079  00000+0  13564-4 0  9993,2 45235  53.0563  18.7122 0001334  99.3039 260.8101 15.06391972311622
STARLINK-1247,45236,53.0303,8.06e-05,16.24214077,207.60413057682308,208.66583762065966,1 45236U 20012BL  25279.54463269  .03139160  11923-4  11260-2 0  9994,2 45236  53.0303 274.5130 0000806 208.4028 151.6968 16.24214077313058
STARLINK-1270,45237,53.055,0.0001424,15.06388974,546.2591767995491,548.2315256931843,1 45237U 20012BM  25279.39127075  .00002567  00000+0  19119-3 0  9998,2 45237  53.0550 339.2919 0001424  73.7167 286.3979 15.06388974312145
STARLINK-1279,45360,53.0525,0.0001063,15.06399358,546.4773608156429,547.9496903373793,1 45360U 20019A   25279.54885228  .00005691  00000+0  40063-3 0  9993,2 45360  53.0525 108.5816 0001063  84.4863 275.6247 15.06399358306902
STARLINK-1301,45361,53.0537,7.25e-05,15.06376718,546.7808218902701,547.7850077779212,1 45361U 20019B   25279.27146122  .00016671  00000+0  11361-2 0  9995,2 45361  53.0537 119.8305 0000725 101.1446 258.9625 15.06376718306732
STARLINK-1306,45362,53.0471,0.0009168,15.60599154,379.72396985640535,392.1265544202615,1 45362U 20019C   25279.55527569  .00089829  00000+0  10589-2 0  9991,2 45362  53.0471 116.3152 0009168 143.5941 216.5697 15.60599154306800
